{
  "type": "FeatureCollection",
  "features": [
    {
      "type": "Feature",
      "properties": {
        "norad_id": 29798,
        "name": "FENGYUN 1C DEB",
        "group": "fengyun-1c-debris",
        "lat": -70.14119998060697,
        "lon": 92.90649124227399,
        "alt_km": 856.237322269496,
        "timestamp": "2025-12-27T19:21:59.021783+00:00",
        "meta_object_name": "FENGYUN 1C DEB",
        "meta_object_id": "1999-025CQ",
        "meta_epoch": "2025-12-27T11:11:47.454144",
        "meta_mean_motion": 13.99637005,
        "meta_eccentricity": 0.0112216,
        "meta_inclination": 99.2949,
        "meta_ra_of_asc_node": 65.5976,
        "meta_arg_of_pericenter": 232.3956,
        "meta_mean_anomaly": 139.9043,
        "meta_ephemeris_type": 0,
        "meta_classification_type": "U",
        "meta_norad_cat_id": 29798,
        "meta_element_set_no": 999,
        "meta_rev_at_epoch": 96131,
        "meta_bstar": 0.0018034,
        "meta_mean_motion_dot": 2.737e-05,
        "meta_mean_motion_ddot": 0,
        "tle_line1": "1 29798U 99025CQ  25361.46652146  .00002737  00000+0  18034-2 0  9997",
        "tle_line2": "2 29798  99.2949  65.5976 0112216 232.3956 139.9043 13.99637005961312"
      },
      "geometry": {
        "type": "Point",
        "coordinates": [
          92.90649124227399,
          -70.14119998060697
        ]
      }
    },
    {
      "type": "Feature",
      "properties": {
        "norad_id": 29800,
        "name": "FENGYUN 1C DEB",
        "group": "fengyun-1c-debris",
        "lat": 37.562093531367935,
        "lon": 15.545185011149469,
        "alt_km": 977.1644546553325,
        "timestamp": "2025-12-27T19:21:59.021793+00:00",
        "meta_object_name": "FENGYUN 1C DEB",
        "meta_object_id": "1999-025CS",
        "meta_epoch": "2025-12-25T12:58:14.687328",
        "meta_mean_motion": 13.98631422,
        "meta_eccentricity": 0.0133875,
        "meta_inclination": 98.291,
        "meta_ra_of_asc_node": 19.933,
        "meta_arg_of_pericenter": 191.628,
        "meta_mean_anomaly": 321.744,
        "meta_ephemeris_type": 0,
        "meta_classification_type": "U",
        "meta_norad_cat_id": 29800,
        "meta_element_set_no": 999,
        "meta_rev_at_epoch": 95755,
        "meta_bstar": 0.0014898,
        "meta_mean_motion_dot": 2.271e-05,
        "meta_mean_motion_ddot": 0,
        "tle_line1": "1 29800U 99025CS  25359.54044777  .00002271  00000+0  14898-2 0  9999",
        "tle_line2": "2 29800  98.2910  19.9330 0133875 191.6280 321.7440 13.98631422957550"
      },
      "geometry": {
        "type": "Point",
        "coordinates": [
          15.545185011149469,
          37.562093531367935
        ]
      }
    },
    {
      "type": "Feature",
      "properties": {
        "norad_id": 29801,
        "name": "FENGYUN 1C DEB",
        "group": "fengyun-1c-debris",
        "lat": -4.197178799907561,
        "lon": 82.48477091625041,
        "alt_km": 717.4676939252759,
        "timestamp": "2025-12-27T19:21:59.021802+00:00",
        "meta_object_name": "FENGYUN 1C DEB",
        "meta_object_id": "1999-025CT",
        "meta_epoch": "2025-12-27T05:50:32.396064",
        "meta_mean_motion": 14.35913046,
        "meta_eccentricity": 0.0102985,
        "meta_inclination": 98.7951,
        "meta_ra_of_asc_node": 262.561,
        "meta_arg_of_pericenter": 224.164,
        "meta_mean_anomaly": 289.4465,
        "meta_ephemeris_type": 0,
        "meta_classification_type": "U",
        "meta_norad_cat_id": 29801,
        "meta_element_set_no": 999,
        "meta_rev_at_epoch": 99149,
        "meta_bstar": 0.0001905,
        "meta_mean_motion_dot": 5.38e-06,
        "meta_mean_motion_ddot": 0,
        "tle_line1": "1 29801U 99025CT  25361.24343051  .00000538  00000+0  19050-3 0  9997",
        "tle_line2": "2 29801  98.7951 262.5610 0102985 224.1640 289.4465 14.35913046991493"
      },
      "geometry": {
        "type": "Point",
        "coordinates": [
          82.48477091625041,
          -4.197178799907561
        ]
      }
    },
    {
      "type": "Feature",
      "properties": {
        "norad_id": 29802,
        "name": "FENGYUN 1C DEB",
        "group": "fengyun-1c-debris",
        "lat": 12.092295954728339,
        "lon": -66.56095241265812,
        "alt_km": 700.2881568254334,
        "timestamp": "2025-12-27T19:21:59.021811+00:00",
        "meta_object_name": "FENGYUN 1C DEB",
        "meta_object_id": "1999-025CU",
        "meta_epoch": "2025-12-27T05:45:02.019744",
        "meta_mean_motion": 14.62702303,
        "meta_eccentricity": 0.0037458,
        "meta_inclination": 98.6185,
        "meta_ra_of_asc_node": 110.985,
        "meta_arg_of_pericenter": 293.1146,
        "meta_mean_anomaly": 129.2459,
        "meta_ephemeris_type": 0,
        "meta_classification_type": "U",
        "meta_norad_cat_id": 29802,
        "meta_element_set_no": 999,
        "meta_rev_at_epoch": 98685,
        "meta_bstar": 0.0031746,
        "meta_mean_motion_dot": 0.00016311,
        "meta_mean_motion_ddot": 0,
        "tle_line1": "1 29802U 99025CU  25361.23960671  .00016311  00000+0  31746-2 0  9991",
        "tle_line2": "2 29802  98.6185 110.9850 0037458 293.1146 129.2459 14.62702303986853"
      },
      "geometry": {
        "type": "Point",
        "coordinates": [
          -66.56095241265812,
          12.092295954728339
        ]
      }
    },
    {
      "type": "Feature",
      "properties": {
        "norad_id": 29804,
        "name": "FENGYUN 1C DEB",
        "group": "fengyun-1c-debris",
        "lat": -45.411237739857484,
        "lon": -179.48829731731902,
        "alt_km": 826.4115833736741,
        "timestamp": "2025-12-27T19:21:59.021821+00:00",
        "meta_object_name": "FENGYUN 1C DEB",
        "meta_object_id": "1999-025CW",
        "meta_epoch": "2025-12-27T12:11:15.633312",
        "meta_mean_motion": 14.04323608,
        "meta_eccentricity": 0.0097079,
        "meta_inclination": 98.8047,
        "meta_ra_of_asc_node": 9.2679,
        "meta_arg_of_pericenter": 260.1066,
        "meta_mean_anomaly": 255.1726,
        "meta_ephemeris_type": 0,
        "meta_classification_type": "U",
        "meta_norad_cat_id": 29804,
        "meta_element_set_no": 999,
        "meta_rev_at_epoch": 97101,
        "meta_bstar": 2.4923e-05,
        "meta_mean_motion_dot": -2e-08,
        "meta_mean_motion_ddot": 0,
        "tle_line1": "1 29804U 99025CW  25361.50781983 -.00000002  00000+0  24923-4 0  9992",
        "tle_line2": "2 29804  98.8047   9.2679 0097079 260.1066 255.1726 14.04323608971014"
      },
      "geometry": {
        "type": "Point",
        "coordinates": [
          -179.48829731731902,
          -45.411237739857484
        ]
      }
    },
    {
      "type": "Feature",
      "properties": {
        "norad_id": 29805,
        "name": "FENGYUN 1C DEB",
        "group": "fengyun-1c-debris",
        "lat": 66.67518645598122,
        "lon": -104.38500629206914,
        "alt_km": 954.7781516854575,
        "timestamp": "2025-12-27T19:21:59.021831+00:00",
        "meta_object_name": "FENGYUN 1C DEB",
        "meta_object_id": "1999-025CX",
        "meta_epoch": "2025-12-27T03:04:08.587488",
        "meta_mean_motion": 13.72662352,
        "meta_eccentricity": 0.01885173,
        "meta_inclination": 99.4531,
        "meta_ra_of_asc_node": 52.215,
        "meta_arg_of_pericenter": 192.2892,
        "meta_mean_anomaly": 167.3624,
        "meta_ephemeris_type": 0,
        "meta_classification_type": "U",
        "meta_norad_cat_id": 29805,
        "meta_element_set_no": 999,
        "meta_rev_at_epoch": 94900,
        "meta_bstar": 0.00017011456,
        "meta_mean_motion_dot": 1.33e-06,
        "meta_mean_motion_ddot": 0,
        "tle_line1": "1 29805U 99025CX  25361.12787717  .00000133  00000+0  17011-3 0  9995",
        "tle_line2": "2 29805  99.4531  52.2150 0188517 192.2892 167.3624 13.72662352949003"
      },
      "geometry": {
        "type": "Point",
        "coordinates": [
          -104.38500629206914,
          66.67518645598122
        ]
      }
    },
    {
      "type": "Feature",
      "properties": {
        "norad_id": 29806,
        "name": "FENGYUN 1C DEB",
        "group": "fengyun-1c-debris",
        "lat": -66.48656153974794,
        "lon": 37.804043222676256,
        "alt_km": 857.3311267042109,
        "timestamp": "2025-12-27T19:21:59.021840+00:00",
        "meta_object_name": "FENGYUN 1C DEB",
        "meta_object_id": "1999-025CY",
        "meta_epoch": "2025-12-25T23:44:59.531424",
        "meta_mean_motion": 14.1203138,
        "meta_eccentricity": 0.002802,
        "meta_inclination": 98.7123,
        "meta_ra_of_asc_node": 15.4026,
        "meta_arg_of_pericenter": 213.4796,
        "meta_mean_anomaly": 205.1423,
        "meta_ephemeris_type": 0,
        "meta_classification_type": "U",
        "meta_norad_cat_id": 29806,
        "meta_element_set_no": 999,
        "meta_rev_at_epoch": 97326,
        "meta_bstar": 0.00051177,
        "meta_mean_motion_dot": 8.98e-06,
        "meta_mean_motion_ddot": 0,
        "tle_line1": "1 29806U 99025CY  25359.98957791  .00000898  00000+0  51177-3 0  9997",
        "tle_line2": "2 29806  98.7123  15.4026 0028020 213.4796 205.1423 14.12031380973266"
      },
      "geometry": {
        "type": "Point",
        "coordinates": [
          37.804043222676256,
          -66.48656153974794
        ]
      }
    }
  ]
}